GLOBALSTAR M045         
1 25676U 99019A   26003.66896704 -.00000073  00000+0  18140-3 0  9998
2 25676  51.9970  93.8479 0000652 143.5259   4.3594 12.27070770218000
GLOBALSTAR M019         
1 25677U 99019B   26003.04903451  .00000008  00000+0  10262-2 0  9992
2 25677  51.9867 240.0498 0002044  34.5011 113.6854 12.13881952209410
GLOBALSTAR M044         
1 25678U 99019C   26003.54059456 -.00000034  00000+0  69611-3 0  9998
2 25678  51.9942 215.1058 0007185  67.1565 307.7233 11.90263774195182
GLOBALSTAR M042         
1 25679U 99019D   26003.51784360 -.00000027  00000+0  61546-3 0  9996
2 25679  51.9986 205.4106 0003215  15.6056   0.2369 12.22095809209752
GLOBALSTAR M025         
1 25770U 99031A   26003.39688919 -.00000042  00000+0  78215-3 0  9999
2 25770  51.9833  55.4691 0002582 122.1940 328.5040 11.22559801504193
GLOBALSTAR M049         
1 25771U 99031B   26003.51480443 -.00000003  00000+0  21438-2 0  9997
2 25771  51.9877 100.0253 0002448  11.1033 348.9817 11.12124270139711
GLOBALSTAR M047         
1 25772U 99031C   26003.60728016 -.00000060  00000+0  25622-3 0  9992
2 25772  51.9844  77.6375 0016197 244.8500 115.0626 11.31931879493806
GLOBALSTAR M052         
1 25773U 99031D   26003.47887938 -.00000057  00000+0  30228-3 0  9991
2 25773  51.9829 205.9669 0003419 123.6849 241.1446 11.15063203500859
